{
  "type": "FeatureCollection",
  "features": [
    {
      "type": "Feature",
      "properties": {
        "norad_id": 66532,
        "name": "STARLINK-35914",
        "group": "last-30-days",
        "lat": -38.77702350708221,
        "lon": -17.00406229110076,
        "alt_km": 441.2785703850086,
        "timestamp": "2025-12-14T16:47:39.436414+00:00",
        "meta_object_name": "STARLINK-35914",
        "meta_object_id": "2025-265S",
        "meta_epoch": "2025-12-13T20:00:03.000384",
        "meta_mean_motion": 15.46086889,
        "meta_eccentricity": 0.00011409,
        "meta_inclination": 43.0003,
        "meta_ra_of_asc_node": 47.5686,
        "meta_arg_of_pericenter": 289.658,
        "meta_mean_anomaly": 221.6895,
        "meta_ephemeris_type": 0,
        "meta_classification_type": "U",
        "meta_norad_cat_id": 66532,
        "meta_element_set_no": 999,
        "meta_rev_at_epoch": 517,
        "meta_bstar": -0.04677107,
        "meta_mean_motion_dot": -0.02080799,
        "meta_mean_motion_ddot": 0,
        "tle_line1": "1 66532U 25265S   25347.83336806 -.02080799  00000+0 -46771-1 0  9992",
        "tle_line2": "2 66532  43.0003  47.5686 0001140 289.6580 221.6895 15.46086889  5175"
      },
      "geometry": {
        "type": "Point",
        "coordinates": [
          -17.00406229110076,
          -38.77702350708221
        ]
      }
    },
    {
      "type": "Feature",
      "properties": {
        "norad_id": 66533,
        "name": "STARLINK-35707",
        "group": "last-30-days",
        "lat": -23.90692948455242,
        "lon": 14.069495555353226,
        "alt_km": 415.58006890837805,
        "timestamp": "2025-12-14T16:47:39.436424+00:00",
        "meta_object_name": "STARLINK-35707",
        "meta_object_id": "2025-265T",
        "meta_epoch": "2025-12-13T20:51:14.754528",
        "meta_mean_motion": 15.50564385,
        "meta_eccentricity": 0.00024505,
        "meta_inclination": 42.9992,
        "meta_ra_of_asc_node": 47.3369,
        "meta_arg_of_pericenter": 286.6299,
        "meta_mean_anomaly": 73.4292,
        "meta_ephemeris_type": 0,
        "meta_classification_type": "U",
        "meta_norad_cat_id": 66533,
        "meta_element_set_no": 999,
        "meta_rev_at_epoch": 393,
        "meta_bstar": 0.0012610474,
        "meta_mean_motion_dot": 0.00074308,
        "meta_mean_motion_ddot": 0,
        "tle_line1": "1 66533U 25265T   25347.86892077  .00074308  00000+0  12610-2 0  9994",
        "tle_line2": "2 66533  42.9992  47.3369 0002450 286.6299  73.4292 15.50564385  3939"
      },
      "geometry": {
        "type": "Point",
        "coordinates": [
          14.069495555353226,
          -23.90692948455242
        ]
      }
    },
    {
      "type": "Feature",
      "properties": {
        "norad_id": 66534,
        "name": "STARLINK-35976",
        "group": "last-30-days",
        "lat": -22.842819229870535,
        "lon": 15.597106026230877,
        "alt_km": 416.4372777259141,
        "timestamp": "2025-12-14T16:47:39.436435+00:00",
        "meta_object_name": "STARLINK-35976",
        "meta_object_id": "2025-265U",
        "meta_epoch": "2025-12-13T20:50:46.699584",
        "meta_mean_motion": 15.50536189,
        "meta_eccentricity": 0.00014087,
        "meta_inclination": 43.0007,
        "meta_ra_of_asc_node": 47.3346,
        "meta_arg_of_pericenter": 261.6774,
        "meta_mean_anomaly": 98.3926,
        "meta_ephemeris_type": 0,
        "meta_classification_type": "U",
        "meta_norad_cat_id": 66534,
        "meta_element_set_no": 999,
        "meta_rev_at_epoch": 393,
        "meta_bstar": 0.0014328371,
        "meta_mean_motion_dot": 0.00084499,
        "meta_mean_motion_ddot": 0,
        "tle_line1": "1 66534U 25265U   25347.86859606  .00084499  00000+0  14328-2 0  9996",
        "tle_line2": "2 66534  43.0007  47.3346 0001408 261.6774  98.3926 15.50536189  3938"
      },
      "geometry": {
        "type": "Point",
        "coordinates": [
          15.597106026230877,
          -22.842819229870535
        ]
      }
    },
    {
      "type": "Feature",
      "properties": {
        "norad_id": 66535,
        "name": "STARLINK-35514",
        "group": "last-30-days",
        "lat": -21.404572288644147,
        "lon": 17.59122459777186,
        "alt_km": 415.78926594492896,
        "timestamp": "2025-12-14T16:47:39.436448+00:00",
        "meta_object_name": "STARLINK-35514",
        "meta_object_id": "2025-265V",
        "meta_epoch": "2025-12-13T20:50:15.389952",
        "meta_mean_motion": 15.5059995,
        "meta_eccentricity": 0.00013283,
        "meta_inclination": 43.0006,
        "meta_ra_of_asc_node": 47.3326,
        "meta_arg_of_pericenter": 273.9842,
        "meta_mean_anomaly": 86.0866,
        "meta_ephemeris_type": 0,
        "meta_classification_type": "U",
        "meta_norad_cat_id": 66535,
        "meta_element_set_no": 999,
        "meta_rev_at_epoch": 393,
        "meta_bstar": 0.0023224297,
        "meta_mean_motion_dot": 0.00138443,
        "meta_mean_motion_ddot": 0,
        "tle_line1": "1 66535U 25265V   25347.86823368  .00138443  00000+0  23224-2 0  9997",
        "tle_line2": "2 66535  43.0006  47.3326 0001328 273.9842  86.0866 15.50599950  3931"
      },
      "geometry": {
        "type": "Point",
        "coordinates": [
          17.59122459777186,
          -21.404572288644147
        ]
      }
    },
    {
      "type": "Feature",
      "properties": {
        "norad_id": 66536,
        "name": "STARLINK-35640",
        "group": "last-30-days",
        "lat": -20.241039055217172,
        "lon": 19.15055370909169,
        "alt_km": 415.9353818996933,
        "timestamp": "2025-12-14T16:47:39.436458+00:00",
        "meta_object_name": "STARLINK-35640",
        "meta_object_id": "2025-265W",
        "meta_epoch": "2025-12-13T20:49:45.750432",
        "meta_mean_motion": 15.50614344,
        "meta_eccentricity": 0.00012223,
        "meta_inclination": 42.9988,
        "meta_ra_of_asc_node": 47.3298,
        "meta_arg_of_pericenter": 270.2352,
        "meta_mean_anomaly": 89.8368,
        "meta_ephemeris_type": 0,
        "meta_classification_type": "U",
        "meta_norad_cat_id": 66536,
        "meta_element_set_no": 999,
        "meta_rev_at_epoch": 393,
        "meta_bstar": 0.0016921557,
        "meta_mean_motion_dot": 0.00100336,
        "meta_mean_motion_ddot": 0,
        "tle_line1": "1 66536U 25265W   25347.86789063  .00100336  00000+0  16922-2 0  9998",
        "tle_line2": "2 66536  42.9988  47.3298 0001222 270.2352  89.8368 15.50614344  3939"
      },
      "geometry": {
        "type": "Point",
        "coordinates": [
          19.15055370909169,
          -20.241039055217172
        ]
      }
    },
    {
      "type": "Feature",
      "properties": {
        "norad_id": 66537,
        "name": "STARLINK-35582",
        "group": "last-30-days",
        "lat": -19.147033477179797,
        "lon": 20.58157975079941,
        "alt_km": 415.86726978560364,
        "timestamp": "2025-12-14T16:47:39.436470+00:00",
        "meta_object_name": "STARLINK-35582",
        "meta_object_id": "2025-265X",
        "meta_epoch": "2025-12-13T20:49:15.925152",
        "meta_mean_motion": 15.50566552,
        "meta_eccentricity": 0.00014596,
        "meta_inclination": 42.9988,
        "meta_ra_of_asc_node": 47.3277,
        "meta_arg_of_pericenter": 280.0663,
        "meta_mean_anomaly": 80.0033,
        "meta_ephemeris_type": 0,
        "meta_classification_type": "U",
        "meta_norad_cat_id": 66537,
        "meta_element_set_no": 999,
        "meta_rev_at_epoch": 393,
        "meta_bstar": 0.0013898713,
        "meta_mean_motion_dot": 0.00082018,
        "meta_mean_motion_ddot": 0,
        "tle_line1": "1 66537U 25265X   25347.86754543  .00082018  00000+0  13899-2 0  9990",
        "tle_line2": "2 66537  42.9988  47.3277 0001459 280.0663  80.0033 15.50566552  3932"
      },
      "geometry": {
        "type": "Point",
        "coordinates": [
          20.58157975079941,
          -19.147033477179797
        ]
      }
    },
    {
      "type": "Feature",
      "properties": {
        "norad_id": 66538,
        "name": "STARLINK-35577",
        "group": "last-30-days",
        "lat": -17.73224139129478,
        "lon": 22.380037925273793,
        "alt_km": 415.4171970636462,
        "timestamp": "2025-12-14T16:47:39.436480+00:00",
        "meta_object_name": "STARLINK-35577",
        "meta_object_id": "2025-265Y",
        "meta_epoch": "2025-12-13T13:04:58.713600",
        "meta_mean_motion": 15.50582443,
        "meta_eccentricity": 0.00015653,
        "meta_inclination": 43.0005,
        "meta_ra_of_asc_node": 49.2048,
        "meta_arg_of_pericenter": 281.3101,
        "meta_mean_anomaly": 78.7583,
        "meta_ephemeris_type": 0,
        "meta_classification_type": "U",
        "meta_norad_cat_id": 66538,
        "meta_element_set_no": 999,
        "meta_rev_at_epoch": 388,
        "meta_bstar": 0.0015469304,
        "meta_mean_motion_dot": 0.00091488,
        "meta_mean_motion_ddot": 0,
        "tle_line1": "1 66538U 25265Y   25347.54512400  .00091488  00000+0  15469-2 0  9996",
        "tle_line2": "2 66538  43.0005  49.2048 0001565 281.3101  78.7583 15.50582443  3886"
      },
      "geometry": {
        "type": "Point",
        "coordinates": [
          22.380037925273793,
          -17.73224139129478
        ]
      }
    }
  ]
}